PROGRESS-MS 33          
1 68319U 26058A   26095.81141530  .00008309  00000+0  15990-3 0  9999
2 68319  51.6329 298.2672 0006355 276.3215  83.7049 15.48791307  2037
STARLINK-36987          
1 68321U 26059A   26095.81406321  .00227451  00000+0  11197-2 0  9990
2 68321  53.1592 226.9546 0001245 154.4430 205.6654 15.80991002  2267
STARLINK-37088          
1 68322U 26059B   26095.81256582  .00131209  00000+0  65559-3 0  9990
2 68322  53.1595 226.9445 0000996  66.1771 293.9356 15.80961172  2262
STARLINK-36983          
1 68323U 26059C   26095.81331569  .00145278  00000+0  72360-3 0  9999
2 68323  53.1595 226.9493 0001378  78.6523 281.4655 15.80982895  2263
STARLINK-37164          
1 68324U 26059D   26095.81181583  .00146770  00000+0  73166-3 0  9992
2 68324  53.1596 226.9393 0001258 139.4547 220.6569 15.80959360  3398
STARLINK-36309          
1 68325U 26059E   26095.81106381  .00130571  00000+0  65255-3 0  9998
2 68325  53.1597 226.9345 0001388 150.8873 209.2228 15.80958235  2260
STARLINK-37206          
1 68326U 26059F   26095.81031081  .00229890  00000+0  11310-2 0  9998
2 68326  53.1596 226.9285 0000408  51.9845 308.1215 15.80997642  2265
STARLINK-37199          
1 68327U 26059G   26095.80956249  .00220551  00000+0  10864-2 0  9998
2 68327  53.1599 226.9241 0000784  99.4719 260.6392 15.80997957  2262
STARLINK-36245          
1 68328U 26059H   26095.74484879  .00057818  00000+0  29378-3 0  9992
2 68328  53.1600 227.2309 0001209  87.1661 272.9500 15.80927301  2250
STARLINK-37204          
1 68329U 26059J   26095.80882145  .00116210  00000+0  58292-3 0  9997
2 68329  53.1596 226.9194 0000895  65.0497 295.0619 15.80929009  2260
STARLINK-37001          
1 68330U 26059K   26095.74409359  .00212230  00000+0  10464-2 0  9991
2 68330  53.1592 227.2258 0000613  24.5289 335.5762 15.81001288  2259
STARLINK-36932          
1 68331U 26059L   26095.80656108  .00234221  00000+0  11510-2 0  9992
2 68331  53.1594 226.9039 0000822 143.6992 216.4087 15.81010689  2264
STARLINK-37205          
1 68332U 26059M   26095.80581553  .00126431  00000+0  63242-3 0  9997
2 68332  53.1597 226.8987 0001104 109.3580 250.7563 15.80953232  2264
STARLINK-37180          
1 68333U 26059N   26095.80506233  .00170229  00000+0  84538-3 0  9995
2 68333  53.1596 226.8937 0000561  33.3198 326.7860 15.80968249  2264
STARLINK-37191          
1 68334U 26059P   26095.80431082  .00198699  00000+0  98188-3 0  9992
2 68334  53.1591 226.8882 0000345 130.1439 229.9614 15.80991082  2265
STARLINK-37217          
1 68335U 26059Q   26095.80356304  .00215411  00000+0  10634-2 0  9997
2 68335  53.1593 226.8833 0000755  78.1498 281.9610 15.80964171  2268
STARLINK-37143          
1 68336U 26059R   26095.80281160  .00216391  00000+0  10670-2 0  9993
2 68336  53.1594 226.8785 0000998  37.4079 322.7013 15.80986622  2264
