[{"OBJECT_NAME":"PROGRESS-MS 33","OBJECT_ID":"2026-058A","EPOCH":"2026-04-05T19:28:26.281920","MEAN_MOTION":15.48791307,"ECCENTRICITY":0.0006355,"INCLINATION":51.6329,"RA_OF_ASC_NODE":298.2672,"ARG_OF_PERICENTER":276.3215,"MEAN_ANOMALY":83.7049,"EPHEMERIS_TYPE":0,"CLASSIFICATION_TYPE":"U","NORAD_CAT_ID":68319,"ELEMENT_SET_NO":999,"REV_AT_EPOCH":203,"BSTAR":0.0001599,"MEAN_MOTION_DOT":8.309e-5,"MEAN_MOTION_DDOT":0},{"OBJECT_NAME":"STARLINK-36987","OBJECT_ID":"2026-059A","EPOCH":"2026-04-05T19:32:15.061344","MEAN_MOTION":15.80991002,"ECCENTRICITY":0.0001245,"INCLINATION":53.1592,"RA_OF_ASC_NODE":226.9546,"ARG_OF_PERICENTER":154.443,"MEAN_ANOMALY":205.6654,"EPHEMERIS_TYPE":0,"CLASSIFICATION_TYPE":"U","NORAD_CAT_ID":68321,"ELEMENT_SET_NO":999,"REV_AT_EPOCH":226,"BSTAR":0.0011197,"MEAN_MOTION_DOT":0.00227451,"MEAN_MOTION_DDOT":0},{"OBJECT_NAME":"STARLINK-37088","OBJECT_ID":"2026-059B","EPOCH":"2026-04-05T19:30:05.686848","MEAN_MOTION":15.80961172,"ECCENTRICITY":9.96e-5,"INCLINATION":53.1595,"RA_OF_ASC_NODE":226.9445,"ARG_OF_PERICENTER":66.1771,"MEAN_ANOMALY":293.9356,"EPHEMERIS_TYPE":0,"CLASSIFICATION_TYPE":"U","NORAD_CAT_ID":68322,"ELEMENT_SET_NO":999,"REV_AT_EPOCH":226,"BSTAR":0.00065559,"MEAN_MOTION_DOT":0.00131209,"MEAN_MOTION_DDOT":0},{"OBJECT_NAME":"STARLINK-36983","OBJECT_ID":"2026-059C","EPOCH":"2026-04-05T19:31:10.475616","MEAN_MOTION":15.80982895,"ECCENTRICITY":0.0001378,"INCLINATION":53.1595,"RA_OF_ASC_NODE":226.9493,"ARG_OF_PERICENTER":78.6523,"MEAN_ANOMALY":281.4655,"EPHEMERIS_TYPE":0,"CLASSIFICATION_TYPE":"U","NORAD_CAT_ID":68323,"ELEMENT_SET_NO":999,"REV_AT_EPOCH":226,"BSTAR":0.0007236,"MEAN_MOTION_DOT":0.00145278,"MEAN_MOTION_DDOT":0},{"OBJECT_NAME":"STARLINK-37164","OBJECT_ID":"2026-059D","EPOCH":"2026-04-05T19:29:00.887712","MEAN_MOTION":15.8095936,"ECCENTRICITY":0.0001258,"INCLINATION":53.1596,"RA_OF_ASC_NODE":226.9393,"ARG_OF_PERICENTER":139.4547,"MEAN_ANOMALY":220.6569,"EPHEMERIS_TYPE":0,"CLASSIFICATION_TYPE":"U","NORAD_CAT_ID":68324,"ELEMENT_SET_NO":999,"REV_AT_EPOCH":339,"BSTAR":0.00073166,"MEAN_MOTION_DOT":0.0014677,"MEAN_MOTION_DDOT":0},{"OBJECT_NAME":"STARLINK-36309","OBJECT_ID":"2026-059E","EPOCH":"2026-04-05T19:27:55.913184","MEAN_MOTION":15.80958235,"ECCENTRICITY":0.0001388,"INCLINATION":53.1597,"RA_OF_ASC_NODE":226.9345,"ARG_OF_PERICENTER":150.8873,"MEAN_ANOMALY":209.2228,"EPHEMERIS_TYPE":0,"CLASSIFICATION_TYPE":"U","NORAD_CAT_ID":68325,"ELEMENT_SET_NO":999,"REV_AT_EPOCH":226,"BSTAR":0.00065255,"MEAN_MOTION_DOT":0.00130571,"MEAN_MOTION_DDOT":0},{"OBJECT_NAME":"STARLINK-37206","OBJECT_ID":"2026-059F","EPOCH":"2026-04-05T19:26:50.853984","MEAN_MOTION":15.80997642,"ECCENTRICITY":4.08e-5,"INCLINATION":53.1596,"RA_OF_ASC_NODE":226.9285,"ARG_OF_PERICENTER":51.9845,"MEAN_ANOMALY":308.1215,"EPHEMERIS_TYPE":0,"CLASSIFICATION_TYPE":"U","NORAD_CAT_ID":68326,"ELEMENT_SET_NO":999,"REV_AT_EPOCH":226,"BSTAR":0.001131,"MEAN_MOTION_DOT":0.0022989,"MEAN_MOTION_DDOT":0},{"OBJECT_NAME":"STARLINK-37199","OBJECT_ID":"2026-059G","EPOCH":"2026-04-05T19:25:46.199136","MEAN_MOTION":15.80997957,"ECCENTRICITY":7.84e-5,"INCLINATION":53.1599,"RA_OF_ASC_NODE":226.9241,"ARG_OF_PERICENTER":99.4719,"MEAN_ANOMALY":260.6392,"EPHEMERIS_TYPE":0,"CLASSIFICATION_TYPE":"U","NORAD_CAT_ID":68327,"ELEMENT_SET_NO":999,"REV_AT_EPOCH":226,"BSTAR":0.0010864,"MEAN_MOTION_DOT":0.00220551,"MEAN_MOTION_DDOT":0},{"OBJECT_NAME":"STARLINK-36245","OBJECT_ID":"2026-059H","EPOCH":"2026-04-05T17:52:34.935456","MEAN_MOTION":15.80927301,"ECCENTRICITY":0.0001209,"INCLINATION":53.16,"RA_OF_ASC_NODE":227.2309,"ARG_OF_PERICENTER":87.1661,"MEAN_ANOMALY":272.95,"EPHEMERIS_TYPE":0,"CLASSIFICATION_TYPE":"U","NORAD_CAT_ID":68328,"ELEMENT_SET_NO":999,"REV_AT_EPOCH":225,"BSTAR":0.00029378,"MEAN_MOTION_DOT":0.00057818,"MEAN_MOTION_DDOT":0},{"OBJECT_NAME":"STARLINK-37204","OBJECT_ID":"2026-059J","EPOCH":"2026-04-05T19:24:42.173280","MEAN_MOTION":15.80929009,"ECCENTRICITY":8.95e-5,"INCLINATION":53.1596,"RA_OF_ASC_NODE":226.9194,"ARG_OF_PERICENTER":65.0497,"MEAN_ANOMALY":295.0619,"EPHEMERIS_TYPE":0,"CLASSIFICATION_TYPE":"U","NORAD_CAT_ID":68329,"ELEMENT_SET_NO":999,"REV_AT_EPOCH":226,"BSTAR":0.00058292,"MEAN_MOTION_DOT":0.0011621,"MEAN_MOTION_DDOT":0},{"OBJECT_NAME":"STARLINK-37001","OBJECT_ID":"2026-059K","EPOCH":"2026-04-05T17:51:29.686176","MEAN_MOTION":15.81001288,"ECCENTRICITY":6.13e-5,"INCLINATION":53.1592,"RA_OF_ASC_NODE":227.2258,"ARG_OF_PERICENTER":24.5289,"MEAN_ANOMALY":335.5762,"EPHEMERIS_TYPE":0,"CLASSIFICATION_TYPE":"U","NORAD_CAT_ID":68330,"ELEMENT_SET_NO":999,"REV_AT_EPOCH":225,"BSTAR":0.0010464,"MEAN_MOTION_DOT":0.0021223,"MEAN_MOTION_DDOT":0},{"OBJECT_NAME":"STARLINK-36932","OBJECT_ID":"2026-059L","EPOCH":"2026-04-05T19:21:26.877312","MEAN_MOTION":15.81010689,"ECCENTRICITY":8.22e-5,"INCLINATION":53.1594,"RA_OF_ASC_NODE":226.9039,"ARG_OF_PERICENTER":143.6992,"MEAN_ANOMALY":216.4087,"EPHEMERIS_TYPE":0,"CLASSIFICATION_TYPE":"U","NORAD_CAT_ID":68331,"ELEMENT_SET_NO":999,"REV_AT_EPOCH":226,"BSTAR":0.001151,"MEAN_MOTION_DOT":0.00234221,"MEAN_MOTION_DDOT":0},{"OBJECT_NAME":"STARLINK-37205","OBJECT_ID":"2026-059M","EPOCH":"2026-04-05T19:20:22.461792","MEAN_MOTION":15.80953232,"ECCENTRICITY":0.0001104,"INCLINATION":53.1597,"RA_OF_ASC_NODE":226.8987,"ARG_OF_PERICENTER":109.358,"MEAN_ANOMALY":250.7563,"EPHEMERIS_TYPE":0,"CLASSIFICATION_TYPE":"U","NORAD_CAT_ID":68332,"ELEMENT_SET_NO":999,"REV_AT_EPOCH":226,"BSTAR":0.00063242,"MEAN_MOTION_DOT":0.00126431,"MEAN_MOTION_DDOT":0},{"OBJECT_NAME":"STARLINK-37180","OBJECT_ID":"2026-059N","EPOCH":"2026-04-05T19:19:17.385312","MEAN_MOTION":15.80968249,"ECCENTRICITY":5.61e-5,"INCLINATION":53.1596,"RA_OF_ASC_NODE":226.8937,"ARG_OF_PERICENTER":33.3198,"MEAN_ANOMALY":326.786,"EPHEMERIS_TYPE":0,"CLASSIFICATION_TYPE":"U","NORAD_CAT_ID":68333,"ELEMENT_SET_NO":999,"REV_AT_EPOCH":226,"BSTAR":0.00084538,"MEAN_MOTION_DOT":0.00170229,"MEAN_MOTION_DDOT":0},{"OBJECT_NAME":"STARLINK-37191","OBJECT_ID":"2026-059P","EPOCH":"2026-04-05T19:18:12.454848","MEAN_MOTION":15.80991082,"ECCENTRICITY":3.45e-5,"INCLINATION":53.1591,"RA_OF_ASC_NODE":226.8882,"ARG_OF_PERICENTER":130.1439,"MEAN_ANOMALY":229.9614,"EPHEMERIS_TYPE":0,"CLASSIFICATION_TYPE":"U","NORAD_CAT_ID":68334,"ELEMENT_SET_NO":999,"REV_AT_EPOCH":226,"BSTAR":0.00098188,"MEAN_MOTION_DOT":0.00198699,"MEAN_MOTION_DDOT":0},{"OBJECT_NAME":"STARLINK-37217","OBJECT_ID":"2026-059Q","EPOCH":"2026-04-05T19:17:07.846656","MEAN_MOTION":15.80964171,"ECCENTRICITY":7.55e-5,"INCLINATION":53.1593,"RA_OF_ASC_NODE":226.8833,"ARG_OF_PERICENTER":78.1498,"MEAN_ANOMALY":281.961,"EPHEMERIS_TYPE":0,"CLASSIFICATION_TYPE":"U","NORAD_CAT_ID":68335,"ELEMENT_SET_NO":999,"REV_AT_EPOCH":226,"BSTAR":0.0010634,"MEAN_MOTION_DOT":0.00215411,"MEAN_MOTION_DDOT":0},{"OBJECT_NAME":"STARLINK-37143","OBJECT_ID":"2026-059R","EPOCH":"2026-04-05T19:16:02.922240","MEAN_MOTION":15.80986622,"ECCENTRICITY":9.98e-5,"INCLINATION":53.1594,"RA_OF_ASC_NODE":226.8785,"ARG_OF_PERICENTER":37.4079,"MEAN_ANOMALY":322.7013,"EPHEMERIS_TYPE":0,"CLASSIFICATION_TYPE":"U","NORAD_CAT_ID":68336,"ELEMENT_SET_NO":999,"REV_AT_EPOCH":226,"BSTAR":0.001067,"MEAN_MOTION_DOT":0.00216391,"MEAN_MOTION_DDOT":0}]
